{
  "type": "FeatureCollection",
  "features": [
    {
      "type": "Feature",
      "properties": {
        "norad_id": 66639,
        "name": "STARLINK-35908",
        "group": "last-30-days",
        "lat": -53.03448835854673,
        "lon": 30.535547610233927,
        "alt_km": 452.4933208426128,
        "timestamp": "2025-12-25T16:53:13.370858+00:00",
        "meta_object_name": "STARLINK-35908",
        "meta_object_id": "2025-271Y",
        "meta_epoch": "2025-12-24T17:55:18.793920",
        "meta_mean_motion": 15.39648699,
        "meta_eccentricity": 0.00011375,
        "meta_inclination": 53.1607,
        "meta_ra_of_asc_node": 130.0891,
        "meta_arg_of_pericenter": 65.634,
        "meta_mean_anomaly": 294.4783,
        "meta_ephemeris_type": 0,
        "meta_classification_type": "U",
        "meta_norad_cat_id": 66639,
        "meta_element_set_no": 999,
        "meta_rev_at_epoch": 606,
        "meta_bstar": 0.00092654947,
        "meta_mean_motion_dot": 0.00036876,
        "meta_mean_motion_ddot": 0,
        "tle_line1": "1 66639U 25271Y   25358.74674530  .00036876  00000+0  92655-3 0  9995",
        "tle_line2": "2 66639  53.1607 130.0891 0001137  65.6340 294.4783 15.39648699  6061"
      },
      "geometry": {
        "type": "Point",
        "coordinates": [
          30.535547610233927,
          -53.03448835854673
        ]
      }
    },
    {
      "type": "Feature",
      "properties": {
        "norad_id": 66640,
        "name": "STARLINK-35921",
        "group": "last-30-days",
        "lat": -27.629800457220522,
        "lon": -31.21218445548215,
        "alt_km": 451.25426929276364,
        "timestamp": "2025-12-25T16:53:13.370868+00:00",
        "meta_object_name": "STARLINK-35921",
        "meta_object_id": "2025-271Z",
        "meta_epoch": "2025-12-25T01:56:04.486272",
        "meta_mean_motion": 15.39632787,
        "meta_eccentricity": 0.00010557,
        "meta_inclination": 53.1603,
        "meta_ra_of_asc_node": 128.6184,
        "meta_arg_of_pericenter": 69.9774,
        "meta_mean_anomaly": 290.1344,
        "meta_ephemeris_type": 0,
        "meta_classification_type": "U",
        "meta_norad_cat_id": 66640,
        "meta_element_set_no": 999,
        "meta_rev_at_epoch": 611,
        "meta_bstar": 0.001325263,
        "meta_mean_motion_dot": 0.00053001,
        "meta_mean_motion_ddot": 0,
        "tle_line1": "1 66640U 25271Z   25359.08060748  .00053001  00000+0  13253-2 0  9990",
        "tle_line2": "2 66640  53.1603 128.6184 0001055  69.9774 290.1344 15.39632787  6117"
      },
      "geometry": {
        "type": "Point",
        "coordinates": [
          -31.21218445548215,
          -27.629800457220522
        ]
      }
    },
    {
      "type": "Feature",
      "properties": {
        "norad_id": 66641,
        "name": "STARLINK-35923",
        "group": "last-30-days",
        "lat": 30.10897623073915,
        "lon": 151.08363645902983,
        "alt_km": 429.28544510507527,
        "timestamp": "2025-12-25T16:53:13.370880+00:00",
        "meta_object_name": "STARLINK-35923",
        "meta_object_id": "2025-271AA",
        "meta_epoch": "2025-12-24T22:04:26.330016",
        "meta_mean_motion": 15.44015427,
        "meta_eccentricity": 0.000528,
        "meta_inclination": 53.1617,
        "meta_ra_of_asc_node": 129.0332,
        "meta_arg_of_pericenter": 3.5098,
        "meta_mean_anomaly": 356.5945,
        "meta_ephemeris_type": 0,
        "meta_classification_type": "U",
        "meta_norad_cat_id": 66641,
        "meta_element_set_no": 999,
        "meta_rev_at_epoch": 609,
        "meta_bstar": -0.0083616,
        "meta_mean_motion_dot": -0.00370072,
        "meta_mean_motion_ddot": 0,
        "tle_line1": "1 66641U 25271AA  25358.91974919 -.00370072  00000+0 -83616-2 0  9998",
        "tle_line2": "2 66641  53.1617 129.0332 0005280   3.5098 356.5945 15.44015427  6093"
      },
      "geometry": {
        "type": "Point",
        "coordinates": [
          151.08363645902983,
          30.10897623073915
        ]
      }
    },
    {
      "type": "Feature",
      "properties": {
        "norad_id": 66642,
        "name": "STARLINK-35926",
        "group": "last-30-days",
        "lat": 7.673401387541101,
        "lon": 131.17144033728175,
        "alt_km": 446.89390644208015,
        "timestamp": "2025-12-25T16:53:13.370891+00:00",
        "meta_object_name": "STARLINK-35926",
        "meta_object_id": "2025-271AB",
        "meta_epoch": "2025-12-25T08:00:01.000224",
        "meta_mean_motion": 15.39576069,
        "meta_eccentricity": 0.00010016,
        "meta_inclination": 53.1604,
        "meta_ra_of_asc_node": 127.1193,
        "meta_arg_of_pericenter": 84.6098,
        "meta_mean_anomaly": 31.6364,
        "meta_ephemeris_type": 0,
        "meta_classification_type": "U",
        "meta_norad_cat_id": 66642,
        "meta_element_set_no": 999,
        "meta_rev_at_epoch": 603,
        "meta_bstar": 0.001676526,
        "meta_mean_motion_dot": 0.00067155,
        "meta_mean_motion_ddot": 0,
        "tle_line1": "1 66642U 25271AB  25359.33334491  .00067155  00000+0  16765-2 0  9995",
        "tle_line2": "2 66642  53.1604 127.1193 0001001  84.6098  31.6364 15.39576069  6039"
      },
      "geometry": {
        "type": "Point",
        "coordinates": [
          131.17144033728175,
          7.673401387541101
        ]
      }
    },
    {
      "type": "Feature",
      "properties": {
        "norad_id": 66643,
        "name": "STARLINK-35918",
        "group": "last-30-days",
        "lat": -47.70533561157371,
        "lon": 70.0323983178502,
        "alt_km": 452.6535558748428,
        "timestamp": "2025-12-25T16:53:13.370901+00:00",
        "meta_object_name": "STARLINK-35918",
        "meta_object_id": "2025-271AC",
        "meta_epoch": "2025-12-25T00:00:02.999808",
        "meta_mean_motion": 15.39609596,
        "meta_eccentricity": 0.00011454,
        "meta_inclination": 53.1596,
        "meta_ra_of_asc_node": 128.8453,
        "meta_arg_of_pericenter": 84.0898,
        "meta_mean_anomaly": 266.4446,
        "meta_ephemeris_type": 0,
        "meta_classification_type": "U",
        "meta_norad_cat_id": 66643,
        "meta_element_set_no": 999,
        "meta_rev_at_epoch": 597,
        "meta_bstar": -8.5686918e-05,
        "meta_mean_motion_dot": -3.824e-05,
        "meta_mean_motion_ddot": 0,
        "tle_line1": "1 66643U 25271AC  25359.00003472 -.00003824  00000+0 -85687-4 0  9998",
        "tle_line2": "2 66643  53.1596 128.8453 0001145  84.0898 266.4446 15.39609596  5971"
      },
      "geometry": {
        "type": "Point",
        "coordinates": [
          70.0323983178502,
          -47.70533561157371
        ]
      }
    },
    {
      "type": "Feature",
      "properties": {
        "norad_id": 66644,
        "name": "STARLINK-35938",
        "group": "last-30-days",
        "lat": 6.212898059899425,
        "lon": 130.059677455854,
        "alt_km": 447.13583562016083,
        "timestamp": "2025-12-25T16:53:13.370913+00:00",
        "meta_object_name": "STARLINK-35938",
        "meta_object_id": "2025-271AD",
        "meta_epoch": "2025-12-25T08:00:01.000224",
        "meta_mean_motion": 15.39579244,
        "meta_eccentricity": 9.884e-05,
        "meta_inclination": 53.1606,
        "meta_ra_of_asc_node": 127.1235,
        "meta_arg_of_pericenter": 86.1182,
        "meta_mean_anomaly": 28.2912,
        "meta_ephemeris_type": 0,
        "meta_classification_type": "U",
        "meta_norad_cat_id": 66644,
        "meta_element_set_no": 999,
        "meta_rev_at_epoch": 600,
        "meta_bstar": 0.0016897746,
        "meta_mean_motion_dot": 0.00067701,
        "meta_mean_motion_ddot": 0,
        "tle_line1": "1 66644U 25271AD  25359.33334491  .00067701  00000+0  16898-2 0  9991",
        "tle_line2": "2 66644  53.1606 127.1235 0000988  86.1182  28.2912 15.39579244  6000"
      },
      "geometry": {
        "type": "Point",
        "coordinates": [
          130.059677455854,
          6.212898059899425
        ]
      }
    },
    {
      "type": "Feature",
      "properties": {
        "norad_id": 66645,
        "name": "SHENZHOU-22",
        "group": "last-30-days",
        "lat": -36.81065580369132,
        "lon": -119.96290968758605,
        "alt_km": 396.36752609669657,
        "timestamp": "2025-12-25T16:53:13.370924+00:00",
        "meta_object_name": "SHENZHOU-22",
        "meta_object_id": "2025-272A",
        "meta_epoch": "2025-12-25T04:52:13.170144",
        "meta_mean_motion": 15.59668525,
        "meta_eccentricity": 0.0008299,
        "meta_inclination": 41.4684,
        "meta_ra_of_asc_node": 301.0153,
        "meta_arg_of_pericenter": 140.7074,
        "meta_mean_anomaly": 219.4368,
        "meta_ephemeris_type": 0,
        "meta_classification_type": "U",
        "meta_norad_cat_id": 66645,
        "meta_element_set_no": 999,
        "meta_rev_at_epoch": 26598,
        "meta_bstar": 0.00024182625,
        "meta_mean_motion_dot": 0.000196,
        "meta_mean_motion_ddot": 0,
        "tle_line1": "1 66645U 25272A   25359.20293021  .00019600  00000+0  24183-3 0  9994",
        "tle_line2": "2 66645  41.4684 301.0153 0008299 140.7074 219.4368 15.59668525265985"
      },
      "geometry": {
        "type": "Point",
        "coordinates": [
          -119.96290968758605,
          -36.81065580369132
        ]
      }
    }
  ]
}